#dP2023  4 30  0  0  0.00000000      96 __u+U IGS14 FIT  IAC
## 2260      0.00000000   900.00000000 60064 0.0000000000000
+  120   C06C07C08C09C10C11C12C13C14C16C19C20C21C22C23C24C25
+        C26C27C28C29C30C32C33C34C35C36C37C38C39C40C41C42C43
+        C44C45C46E01E02E03E04E05E07E08E09E10E11E12E13E14E15
+        E18E19E21E24E25E26E27E30E31E33E34E36G01G02G03G04G05
+        G06G07G08G09G10G11G12G13G14G15G16G17G18G19G20G21G22
+        G23G24G25G26G27G28G29G30G31G32J02J03J04R01R02R03R04
+        R05R07R08R09R11R12R13R14R15R16R17R18R19R20R21R22R24
+        R25  0  0  0  0  0  0  0  0  0  0  0  0  0  0  0  0
++         7  7  7  7  7  7  7  7  7  7  6  6  6  6  6  6  6
++         6  6  5  6  6  6  6  6  6  6  5  6  6  6  6  6  6
++         6  6  6  0  4  4  4  4  4  4  4  4  4  4  4  4  4
++         5  4  4  4  4  4  4  4  4  4  4  4  4  4  4  4  4
++         4  4  3  4  3  4  4  3  4  4  3  4  3  4  4  4  4
++         3  4  4  3  3  4  3  4  4  4  9  9 10  9  7  7  6
++         6  7  7  7  6  6  8  7  7  6  7  7  7  8  7  7  7
++         8  0  0  0  0  0  0  0  0  0  0  0  0  0  0  0  0
%c M  cc GPS ccc cccc cccc cccc cccc ccccc ccccc ccccc ccccc
%c cc cc ccc ccc cccc cccc cccc cccc ccccc ccccc ccccc ccccc
%f  1.2500000  1.025000000  0.00000000000  0.000000000000000
%f  0.0000000  0.000000000  0.00000000000  0.000000000000000
%i    0    0    0    0      0      0      0      0         0
%i    0    0    0    0      0      0      0      0         0
/* INFORMATION & ANALYSIS CENTER (IAC)            FINAL DATA
/* S/V CLOCKS ARE ALIGNED TO GNSS TIME                      
/* G:C1WC2W R:C1PC2P E:C1XC5X C:C2IC6I J:C1CC2S             
/* PCV:IGS20_2247 OL/AL:FES2004  NONE     YN ORB:CoN CLK:CoN
*  2023 04 30  7  0  0.00000000
PC06  -4074.174312  25448.940200 -33300.169238   -195.218992
PC07 -18292.200828  33251.941295  18223.942908     52.603077
PC08  -5454.077369  40153.031603  11972.205075    495.550014
PC09   5776.176536  28879.052713 -29552.383295    708.954238
PC10  -9772.860677  33165.512727  24090.949561    -46.030984
PC11 -10441.641563 -17320.452914 -19160.825256    328.412746
PC12   9987.178556 -12505.166589 -22830.188668    605.993405
PC13   -878.350757  41960.998737   5446.006946    264.127064
PC14   -467.935296 -18687.304708  20762.157835    192.632600
PC16  -7332.810866  23263.125876 -34136.231883     93.765254
PC19   9709.214860  12362.703699 -23025.941970   -905.393614
PC20  -7214.418631  21397.935871 -16353.810681    596.659887
PC21  21171.856400 -18189.618579   -760.364773   -911.924364
PC22  21924.559879  -4241.885505 -16751.654581   -511.167117
PC23 -16936.167274  -6653.404168 -21153.376849   -916.857886
PC24    710.353558 -26579.824416   8423.355282   -110.548624
PC25 -12630.456102 -22796.552771  -9959.232388    116.903381
PC26  11431.619515 -15315.517429  20309.072141   -113.514841
PC27 -18208.704956   8099.687972  19516.510723    133.146199
PC28 -26781.996080  -4431.277766   6470.864522     98.286183
PC29  20190.639223  14924.203187  12165.282189    113.973124
PC30    594.465537  16546.279041  22448.740707      0.083902
PC32 -21059.770857  18273.400543    886.690433   -570.018170
PC33  -9691.272705 -12447.229818  23029.527209   -876.911914
PC34  -2099.643653 -16862.318718 -22156.180277    160.176664
PC35  27004.523665   3987.433902  -5710.329669    636.628568
PC36  11744.251667  23542.584035   9333.720131   -470.193039
PC37 -12371.568543  13888.353779 -20798.605256   -786.012684
PC38 -10266.804823  36269.582826  19064.243262     75.173981
PC39 -12437.166833  20692.319694 -34530.834250     -2.749616
PC40 -25212.938485  28268.373353  18253.689862    -21.808617
PC41 -21676.303373   3623.946876  17247.120416   -916.151564
PC42   8385.610002 -21744.066537  15421.814790   -713.385614
PC43 -19498.891848 -15334.802611 -12820.586031     19.136771
PC44  18047.159624  -8814.301307 -19377.063876     91.788587
PC45  16823.930425   6186.805147  21391.652211    -91.532184
PC46    412.954451  27025.205727  -7022.173672    -50.616530
PE01      0.000000      0.000000      0.000000 999999.999999
PE02 -16157.743995  22314.387487 -10851.547093     35.345234
PE03 -21789.473781  14063.427825 -14252.545796   -674.250727
PE04   2017.214142 -17405.854032  23870.674352   -111.771779
PE05 -29232.515447   2346.586831   4011.242309    -71.948207
PE07  19269.370508  10678.718277 -19762.650092    -41.474105
PE08  -2312.243455  17283.940798 -23909.277233    -75.516341
PE09 -19080.588598 -10650.373799  19968.356728      1.826443
PE10 -14295.797381 -24683.719183  -7923.480779   -530.215626
PE11 -20264.880399 -21434.968373   2582.058475   1773.744385
PE12  -6522.245609 -23945.370863 -16157.853242   -519.095693
PE13  19960.407379  21772.780051  -1810.037892    -18.955863
PE14  17495.599188 -18253.929028 -20213.657257    211.589269
PE15   6283.334729  23782.726153  16456.519199    -18.249964
PE18  -6365.232828  14989.981203  17424.286336      8.507009
PE19  23797.343409 -12738.074357  12164.336243  -2645.693530
PE21  18319.142118  -4615.457389  22782.948731   -526.336836
PE24  -9607.521890 -17476.525446 -21883.224097    -72.419469
PE25 -18268.075531   4242.614766 -22900.106305   -604.230399
PE26  21645.304755   6242.485583 -19198.059430     90.186546
PE27  10079.422820  16776.245541  22207.581969    -37.657018
PE30  -4521.255234  28138.609407   8008.314304   -134.226326
PE31   4006.779157 -28049.571486  -8556.297448   -522.663748
PE33  10973.441974 -11752.510398 -24853.228066   -445.167574
PE34 -10840.454328  11893.249163  24834.835979    -42.897773
PE36 -21778.811844  -7056.827931  18770.088776    -48.979244
PG01 -19620.530033 -10979.594057  14086.061340    189.055885
PG02   5125.624282 -15456.531850 -20567.474586   -601.025276
PG03 -15600.690167    122.483937  21347.903245   -316.528448
PG04 -26219.964759   -666.058306   4567.591758     29.376373
PG05   8249.036836  16433.092417 -19294.684741   -125.357235
PG06    630.118273  19971.673265  17508.167612    587.960295
PG07 -15642.205755   3904.637299 -20733.941053    189.675418
PG08 -20505.814330  -7676.043367 -15376.743674   -120.178924
PG09 -24796.743722   7821.414977  -5601.282094   -169.247751
PG10  11020.981545 -23912.975152  -1611.366363    -34.945623
PG11  11720.773904  23294.842642   5154.711045   -179.865669
PG12  14778.441611   3645.819150  21477.600864   -370.157711
PG13  13435.188334  13147.677739 -19019.814488    513.127267
PG14 -13562.309899  22307.879008  -4430.974872     41.081918
PG15  21469.085675   5756.604755 -15187.950141     35.210583
PG16  -4129.827313 -19110.399470 -18066.299599   -504.971797
PG17 -14965.262801  13255.880552  17967.773307    712.878687
PG18  12932.658167  -7574.259587 -21933.753233   -246.132178
PG19  -5367.720219  14595.821469  21259.238155    310.475918
PG20   3529.902073  23467.558184 -12092.784259    436.205189
PG21 -20932.694174 -15881.466801   6818.551333    154.040144
PG22   1438.132458 -15425.544834  22015.114180    473.124875
PG23  15835.292439 -16823.750336 -12961.523587     20.483995
PG24  21298.784081  12919.850254   9432.191168   -171.031738
PG25  17157.725220  -8889.335833  17790.401624    439.372122
PG26   3007.844972 -25270.534242  -7075.852444    241.329137
PG27  -9870.529913 -13321.852917 -21085.616538     47.755733
PG28    619.756500 -19262.200669  18253.912675     72.348199
PG29  26300.019383  -3168.130220  -2558.080622   -597.581916
PG30  -7253.547556  15262.721772 -20324.272707   -519.792558
PG31  -6505.158771 -22707.215080  11530.360966   -215.096684
PG32  11459.655926 -14945.158138  18829.962198   -464.625124
PJ02 -24309.233811  32827.685256  -6094.688521     -1.705718
PJ03 -27162.503379  21857.803224  28810.179919      3.199811
PJ04 -33665.131954  25516.953096   4587.398195     94.321155
PR01 -22186.035635   9730.951613   7966.173427     56.571355
PR02 -17038.459259  15853.156335 -10462.997332    -22.904953
PR03  -1614.010681  13042.048471 -21821.001900     76.950028
PR04  14193.745122   2897.341280 -20958.012731    185.317955
PR05  22384.815840  -8608.790361  -8641.385584    111.783660
PR07    686.068420 -12659.013068  22172.421550     54.892570
PR08 -14439.449437  -2804.761001  20911.308047    -70.583098
PR09   5357.807689 -21376.441138  12932.565773    117.520856
PR11  -9110.386318 -15621.215478 -17988.322643    -45.984644
PR12 -10700.738536   4802.293943 -22629.444948     26.859658
PR13  -6192.135727  20025.360967 -14552.436300    -34.523046
PR14   2781.569260  25035.464601   3966.949959     24.627583
PR15   9392.368417  14577.939235  18721.852252     89.501468
PR16  10569.770231  -4521.171696  22781.548117     14.068409
PR17  10687.378499  15101.552121  17580.762391    625.724305
PR18  21333.205688  13631.421396   2882.007136     79.104884
PR19  21388.483576   6642.900078 -12212.836822   -230.872520
PR20   7544.491594  -7457.058393 -23192.151746    -92.044239
PR21 -11967.451013 -15315.718273 -16512.212947     -3.845177
PR22 -21195.417853 -14082.935319  -1871.763495     81.489280
PR24  -6960.223339   8478.428550  23039.597396    166.212395
PR25  -9653.872354 -15730.212366 -17598.634423     65.220237
EOF
